STARLINK-2698           
1 48458U 21040AG  26068.57312546 -.00093133  00000+0 -31426-2 0  9999
2 48458  53.1606 179.3378 0001389  68.9532 291.1617 15.30496165267376
ION SCV-017             
1 63230U 25052W   26068.71648816  .00006457  00000+0  24539-3 0  9998
2 63230  97.4016 324.7516 0023746  44.9875 315.3282 15.26881798 54851
